CALSPHERE 1             
1 00900U 64063C   23179.15936707  .00000646  00000+0  67276-3 0  9994
2 00900  90.1892  48.0780 0026225 336.5361 143.3605 13.74365015922258
CALSPHERE 2             
1 00902U 64063E   23178.42337581  .00000059  00000+0  75269-4 0  9990
2 00902  90.2040  51.4160 0019759 134.8543  39.4173 13.52754228709927
LCS 1                   
1 01361U 65034C   23176.13247832  .00000007  00000+0 -19738-3 0  9996
2 01361  32.1382 240.4404 0007507 127.5343 232.5837  9.89303398102470
TEMPSAT 1               
1 01512U 65065E   23177.68442519  .00000031  00000+0  42134-4 0  9991
2 01512  89.9326 215.9398 0071663  60.5790  66.5077 13.33480408815240
CALSPHERE 4A            
1 01520U 65065H   23178.88946840  .00000117  00000+0  21078-3 0  9997
2 01520  89.9705 129.4996 0066939 285.8943 128.8075 13.35972113818193
OPS 5712 (P/L 160)      
1 02826U 67053A   23178.44311262  .00005259  00000+0  12603-2 0  9997
2 02826  69.9264 127.4399 0006285 202.0675 158.0191 14.53995326907664
OPS 5712 (P/L 153)      
1 02874U 67053H   23178.69067240  .00000037  00000+0  65615-4 0  9993
2 02874  69.9744 281.3641 0007184 185.9894 174.1127 13.96487015855691
SURCAL 150B             
1 02909U 67053J   23178.84705059  .00008802  00000+0  14759-2 0  9995
2 02909  69.9449  96.1529 0005530 220.3027 139.7708 14.69994218919146
RIGIDSPHERE 2 (LCS 4)   
1 05398U 71067E   23178.41635989  .00000977  00000+0  33106-3 0  9990
2 05398  87.6201 279.4344 0060928 226.2757 133.3387 14.34876795718244
COSMOS 2493 (SKRL-756 1)
1 39490U 13078A   23179.40236165  .00002085  00000+0  20614-3 0  9993
2 39490  82.4171 233.4226 0014647 288.5402  71.4225 14.91399662516017
COSMOS 2494 (SKRL-756 2)
1 39491U 13078B   23179.46627396  .00002398  00000+0  22770-3 0  9992
2 39491  82.4168 226.2847 0018985 258.5953 101.3134 14.92999984516397
